67P/Churyumov-Gerasimenko,e,3.8664,36.2925,22.2370,3.458870,0.1532155,0.64956832,256.0452,06/01.0/2026,2000,g 11.0,4.0
# From MPC191598
68P/Klemola,e,11.0965,175.0979,153.1735,4.964675,0.0890980,0.63561751,213.9407,06/01.0/2026,2000,g 10.0,4.0
# From MPC191599
69P/Taylor,e,22.0612,104.8055,343.5560,3.878597,0.1290304,0.41463845,338.7766,06/01.0/2026,2000,g  9.5,12.0
# From MPEC 2026-J11
70P/Kojima,e,6.6037,119.2362,1.8270,3.674597,0.1399231,0.45497501,233.5095,06/01.0/2026,2000,g 11.0,6.0
# From MPC191599
71P/Clark,e,9.1630,58.7357,210.9479,3.189425,0.1730356,0.48044621,213.3425,06/01.0/2026,2000,g  9.8,6.0
# From MPC191599
73P/Schwassmann-Wachmann,e,6.2425,52.6504,214.3290,3.058630,0.1842526,0.70211369,255.0786,06/01.0/2026,2000,g 11.5,6.0
# From MPC106348
73P-BT/Schwassmann-Wachmann,e,6.2042,52.7141,214.2010,3.060032,0.1841260,0.70230337,254.7964,06/01.0/2026,2000,g 11.5,6.0
# From MPC194199
74P/Smirnova-Chernykh,e,5.8151,48.6069,57.7136,5.201235,0.0830892,0.07016810,9.1175,06/01.0/2026,2000,g  5.0,6.0
# From MPEC 2026-KB8
76P/West-Kohoutek-Ikemura,e,30.4972,84.1087,0.0222,3.467791,0.1526247,0.53953855,7.3811,06/01.0/2026,2000,g  8.0,12.0
# From MPC191599
77P/Longmore,e,24.3347,14.7482,196.5810,3.618906,0.1431654,0.35225228,165.3342,06/01.0/2026,2000,g  7.0,8.0
# From MPC194199
78P/Gehrels,e,6.2576,210.4943,192.7966,3.731763,0.1367203,0.46285754,356.7046,06/01.0/2026,2000,g  5.5,8.0
# From MPC191599
79P/duToit-Hartley,e,3.1491,280.4702,281.7781,2.941727,0.1953442,0.61972956,190.3513,06/01.0/2026,2000,g 16.0,4.0
# From MPC191600
81P/Wild,e,3.2390,136.1093,41.5488,3.450615,0.1537657,0.53806421,194.1333,06/01.0/2026,2000,g  7.0,6.0
# From MPC191600
82P/Gehrels,e,1.1291,239.2868,226.3009,4.135408,0.1171997,0.12363408,340.4152,06/01.0/2026,2000,g  5.0,8.0
# From MPEC 2026-K60
84P/Giclas,e,7.5528,108.0798,281.7400,3.549862,0.1473625,0.51551391,322.1706,06/01.0/2026,2000,g  9.5,8.0
# From MPC191600
86P/Wild,e,15.4451,72.0540,180.9025,3.657418,0.1409101,0.35908074,223.7880,06/01.0/2026,2000,g 11.0,6.0
# From MPC191600
87P/Bus,e,3.8655,175.3615,63.4528,4.473602,0.1041641,0.19451684,242.8266,06/01.0/2026,2000,g  7.2,10.0
# From MPEC 2026-KB8
88P/Howell,e,4.3818,56.6679,235.8610,3.109026,0.1797909,0.56327892,13.3481,06/01.0/2026,2000,g 11.0,6.0
# From MPC191600
89P/Russell,e,12.0648,41.3338,250.4899,3.752124,0.1356089,0.40687142,108.0453,06/01.0/2026,2000,g 11.5,6.0
# From MPC191600
90P/Gehrels,e,9.6316,13.1376,29.2413,6.056471,0.0661264,0.50998515,215.9093,06/01.0/2026,2000,g  8.5,6.0
# From MPC191600
91P/Russell,e,15.8928,241.7387,356.7920,4.168058,0.1158253,0.25030617,258.3544,06/01.0/2026,2000,g  7.5,6.0
# From MPC191601
92P/Sanguin,e,19.4760,181.3294,163.7715,5.346855,0.0797180,0.65990470,327.3577,06/01.0/2026,2000,g 12.0,6.0
# From MPC194200
93P/Lovas,e,12.2106,339.5492,75.0470,4.372319,0.1078044,0.61384581,3.1312,06/01.0/2026,2000,g  9.5,6.0
# From MPEC 2026-J11
94P/Russell,e,6.1870,70.8303,92.3995,3.509420,0.1499170,0.36632166,165.8566,06/01.0/2026,2000,g  9.0,6.0
# From MPC191601
96P/Machholz,e,57.5667,93.9555,14.7453,3.030906,0.1867865,0.96173436,227.1831,06/01.0/2026,2000,g 13.0,4.8
# From MPC106348
96P-B/Machholz,e,57.5134,14.4613,94.0856,3.029956,0.1868743,0.96174220,227.3663,06/01.0/2026,2000,g 13.0,4.8
# From MPC191601
97P/Metcalf-Brewington,e,17.9292,184.0577,230.2521,4.772060,0.0945465,0.45942626,148.1123,06/01.0/2026,2000,g  5.5,6.0
# From MPC191601
98P/Takamizawa,e,10.8333,114.3899,161.2568,3.633681,0.1422931,0.60558557,261.8663,06/01.0/2026,2000,g  9.0,8.0
# From MPC191601
99P/Kowal,e,4.3397,28.0395,174.5086,6.092630,0.0655386,0.22912993,99.2109,06/01.0/2026,2000,g  4.5,6.0
# From MPC191601
100P/Hartley,e,25.5695,37.6866,181.8809,3.430147,0.1551440,0.41148282,215.8632,06/01.0/2026,2000,g  9.0,8.0
# From MPC191601
101P/Chernykh,e,5.0485,116.1111,278.0146,5.820143,0.0701946,0.59491907,163.7099,06/01.0/2026,2000,g 10.0,4.8
# From MPC191601
102P/Shoemaker,e,25.8435,339.3413,20.6878,3.821551,0.1319303,0.45565612,258.3076,06/01.0/2026,2000,g  6.5,8.0
# From MPC191602
103P/Hartley,e,13.6009,219.7640,181.3353,3.476465,0.1520538,0.69315476,146.4028,06/01.0/2026,2000,g  8.5,8.0
# From MPC191602
104P/Kowal,e,5.6995,207.1504,227.3469,3.208386,0.1715040,0.66576780,274.4198,06/01.0/2026,2000,g 16.0,4.0
# From MPC191602
105P/SingerBrewster,e,9.1692,192.3843,46.2973,3.472225,0.1523324,0.40923679,75.2973,06/01.0/2026,2000,g 11.5,6.0
# From MPC191602
106P/Schuster,e,19.5235,48.8634,353.7993,3.769138,0.1346918,0.59313386,235.3366,06/01.0/2026,2000,g 14.0,4.8
# From MPC191602
108P/Ciffreo,e,11.4287,50.2710,354.5636,3.744724,0.1360111,0.55527502,234.6051,06/01.0/2026,2000,g  8.0,12.0
# From MPC191602
110P/Hartley,e,11.7114,287.4810,167.6105,3.603093,0.1441089,0.31922280,242.7516,06/01.0/2026,2000,g  1.0,12.0
# From MPC191602
111P/Helin-Roman-Crockett,e,4.2260,89.7318,1.6455,4.153181,0.1164482,0.10707132,210.2843,06/01.0/2026,2000,g  5.0,8.0
# From MPC191602
112P/Urata-Niijima,e,24.2040,31.7943,21.5853,3.521094,0.1491721,0.59070608,343.1645,06/01.0/2026,2000,g 14.0,6.0
# From MPC191602
113P/Spitaler,e,5.2880,306.6092,115.7720,3.697160,0.1386442,0.41927186,202.4740,06/01.0/2026,2000,g 13.5,4.0
# From MPC191603
114P/Wiseman-Skiff,e,18.3035,271.0216,172.8506,3.538262,0.1480877,0.55608003,344.3027,06/01.0/2026,2000,g 11.5,6.0
# From MPC191603
115P/Maury,e,11.7171,175.8230,121.0359,4.267954,0.1117827,0.51967891,238.6855,06/01.0/2026,2000,g 10.5,6.0
# From MPC191603
116P/Wild,e,3.6055,20.9588,173.1528,3.484646,0.1515187,0.37122593,214.3479,06/01.0/2026,2000,g  2.5,10.0
# From MPC194200
117P/Helin-Roman-Alu,e,8.6424,58.7111,225.0515,4.130694,0.1174004,0.24873328,167.2538,06/01.0/2026,2000,g  2.5,8.0
# From MPC191603
118P/Shoemaker-Levy,e,10.0939,142.0407,314.9931,3.349175,0.1608042,0.45372240,206.4605,06/01.0/2026,2000,g 12.0,4.0
# From MPC191603
119P/Parker-Hartley,e,7.3927,104.5416,322.3106,3.810952,0.1324811,0.38771797,183.9862,06/01.0/2026,2000,g  3.5,8.0
# From MPC191603
120P/Mueller,e,8.4780,358.6339,36.8475,3.971310,0.1245384,0.37365932,230.5495,06/01.0/2026,2000,g 12.0,4.0
# From MPEC 2026-K60
121P/Shoemaker-Holt,e,20.1614,94.1069,12.1426,4.592018,0.1001610,0.18658158,106.7013,06/01.0/2026,2000,g  6.5,8.0
# From MPEC 2026-KB8
123P/West-Hartley,e,15.2818,45.8646,103.8821,3.888288,0.1285483,0.44483226,345.4835,06/01.0/2026,2000,g  4.0,10.0
# From MPEC 2026-KB8
124P/Mrkos,e,31.4058,359.9469,185.1213,3.377210,0.1588061,0.48627285,356.4110,06/01.0/2026,2000,g 13.5,2.8
# From MPC191604
125P/Spacewatch,e,9.9863,153.1542,87.0674,3.126843,0.1782563,0.51208067,145.4343,06/01.0/2026,2000,g 13.0,6.0
# From MPC191604
126P/IRAS,e,45.8759,357.8526,356.5320,5.623331,0.0739118,0.69573723,78.5296,06/01.0/2026,2000,g  6.0,8.0
# From MPC191604
127P/Holt-Olmstead,e,14.2903,13.6127,6.3304,3.455570,0.1534351,0.35830711,213.5476,06/01.0/2026,2000,g 11.0,6.0
# From MPC194200
128P/Shoemaker-Holt,e,4.3717,214.3067,210.5674,4.480723,0.1039159,0.32225309,355.2139,06/01.0/2026,2000,g  8.5,4.0
# From MPC191604
129P/Shoemaker-Levy,e,3.4411,184.8280,308.1420,4.295253,0.1107187,0.08597091,140.9985,06/01.0/2026,2000,g 11.0,4.0
# From MPC191604
130P/McNaught-Hughes,e,5.9663,69.6223,247.7972,3.413687,0.1562674,0.45860819,121.2104,06/01.0/2026,2000,g 10.0,6.0
# From MPC191604
131P/Mueller,e,7.3623,214.1321,179.2837,3.673862,0.1399651,0.34460538,14.7309,06/01.0/2026,2000,g 11.0,4.0
# From MPC191604
132P/Helin-Roman-Alu,e,5.3753,173.9567,216.5282,3.893699,0.1282804,0.56351964,213.1732,06/01.0/2026,2000,g 11.0,6.0
# From MPC191604
134P/Kowal-Vavrova,e,4.3315,202.0191,18.5578,6.278464,0.0626504,0.58581468,277.5459,06/01.0/2026,2000,g 11.5,4.0
# From MPC191605
135P/Shoemaker-Levy,e,6.0615,213.0144,22.2914,3.802438,0.1329263,0.29317230,201.8524,06/01.0/2026,2000,g  7.0,8.0
# From MPC194200
136P/Mueller,e,9.4301,137.3906,225.6295,4.192917,0.1147968,0.29367033,58.8100,06/01.0/2026,2000,g 11.0,4.0
# From MPEC 2026-K60
137P/Shoemaker-Levy,e,4.8577,232.9304,141.1837,4.525146,0.1023894,0.57255390,279.1416,06/01.0/2026,2000,g 11.0,4.0
# From MPC194200
138P/Shoemaker-Levy,e,10.0984,309.2188,95.7624,3.616187,0.1433269,0.53147351,9.8415,06/01.0/2026,2000,g 15.0,6.0
# From MPC191605
139P/Vaisala-Oterma,e,2.3382,242.1205,166.1124,4.511460,0.1028557,0.24803252,317.0763,06/01.0/2026,2000,g  9.5,4.0
# From MPC191605
140P/Bowell-Skiff,e,3.6708,343.3418,172.1548,6.415650,0.0606517,0.69481310,241.5780,06/01.0/2026,2000,g 11.5,6.0
# From MPC191605
141P/Machholz,e,13.9602,241.7716,153.6513,3.056430,0.1844516,0.73581486,7.1949,06/01.0/2026,2000,g 12.0,12.0
# From MPEC 2015-KD9
141P-A/Machholz,e,13.9430,153.4937,241.9419,3.056868,0.1844119,0.73584961,7.1262,06/01.0/2026,2000,g 12.0,12.0
# From MPC 37026
141P-D/Machholz,e,13.8345,153.2188,242.1762,3.065180,0.1836624,0.73674372,2.4598,06/01.0/2026,2000,g 12.0,12.0
# From MPC186636
141P-H/Machholz,e,14.0163,241.8467,153.6272,3.045979,0.1854017,0.73460820,11.1643,06/01.0/2026,2000,g 18.5,4.0
# From MPEC 2022-SU8
141P-I/Machholz,e,13.9429,153.4491,241.9499,3.047263,0.1852845,0.73507482,8.9628,06/01.0/2026,2000,g 17.5,4.0
# From MPC191605
142P/Ge-Wang,e,12.2429,175.9631,174.0126,5.003392,0.0880658,0.49568321,162.7643,06/01.0/2026,2000,g  8.5,6.0
# From MPEC 2026-J34
143P/Kowal-Mrkos,e,5.3939,242.0054,304.9066,4.748407,0.0952538,0.37729180,339.9674,06/01.0/2026,2000,g 13.5,2.0
# From MPC191605
144P/Kushida,e,3.9302,242.9213,216.3978,3.835346,0.1312192,0.63484731,112.4729,06/01.0/2026,2000,g  8.5,8.0
# From MPEC 2026-GD5
145P/Shoemaker-Levy,e,11.2778,26.7640,10.4325,4.130212,0.1174210,0.54245734,14.0954,06/01.0/2026,2000,g 13.5,4.0
# From MPC191606
146P/Shoemaker-LINEAR,e,23.1185,53.3053,317.0067,4.020648,0.1222531,0.64764202,81.2600,06/01.0/2026,2000,g 15.0,4.0
# From MPC191606
147P/Kushida-Muramatsu,e,2.3112,91.6673,348.6694,4.009936,0.1227433,0.21143854,111.3305,06/01.0/2026,2000,g 14.0,4.0
# From MPC191606
148P/Anderson-LINEAR,e,3.6583,89.1933,8.1071,3.620318,0.1430817,0.55032349,207.0783,06/01.0/2026,2000,g 16.0,2.0
# From MPC191606
